start=new Date('2023-02-17T00:00:00.000Z').valueOf();
sats=[{"COUNTRY_CODE":"US","CLASSIFICATION_TYPE":"U","ECCENTRICITY":"0.00014770","MEAN_ANOMALY":"297.8629","RA_OF_ASC_NODE":"252.3090","GP_ID":"225662690","MEAN_MOTION":"15.08844273","CENTER_NAME":"EARTH","EPOCH":"2023-02-16T23:05:41.143200","REF_FRAME":"TEME","MEAN_MOTION_DDOT":"0.0000000000000","BSTAR":"0.00017929000000","FILE":"3799147","PERIAPSIS":"538.711","SITE":"AFETR","MEAN_MOTION_DOT":"0.00002567","TLE_LINE2":"2 51461  53.2127 252.3090 0001477  62.2513 297.8629 15.08844273 58736","OBJECT_ID":"2022-010F","OBJECT_NAME":"STARLINK-3181","REV_AT_EPOCH":"5873","ELEMENT_SET_NO":"999","TIME_SYSTEM":"UTC","RCS_SIZE":"LARGE","OBJECT_TYPE":"PAYLOAD","DECAY_DATE":null,"INCLINATION":"53.2127","ARG_OF_PERICENTER":"62.2513","MEAN_ELEMENT_THEORY":"SGP4","SEMIMAJOR_AXIS":"6917.867","NORAD_CAT_ID":"51461","TLE_LINE1":"1 51461U 22010F   23047.96228175  .00002567  00000-0  17929-3 0  9999","LAUNCH_DATE":"2022-02-03","EPHEMERIS_TYPE":"0","PERIOD":"95.437","APOAPSIS":"540.754"},{"DECAY_DATE":null,"OBJECT_TYPE":"PAYLOAD","RCS_SIZE":"LARGE","ELEMENT_SET_NO":"999","TIME_SYSTEM":"UTC","OBJECT_NAME":"STARLINK-3166","REV_AT_EPOCH":"5822","OBJECT_ID":"2022-010G","MEAN_MOTION_DOT":"0.00003211","TLE_LINE2":"2 51462  53.2137 252.6221 0001020  74.8648 285.2457 15.08848651 58227","PERIOD":"95.437","APOAPSIS":"540.425","EPHEMERIS_TYPE":"0","LAUNCH_DATE":"2022-02-03","TLE_LINE1":"1 51462U 22010G   23047.89235758  .00003211  00000-0  21968-3 0  9992","NORAD_CAT_ID":"51462","SEMIMAJOR_AXIS":"6917.854","MEAN_ELEMENT_THEORY":"SGP4","INCLINATION":"53.2137","ARG_OF_PERICENTER":"74.8648","CENTER_NAME":"EARTH","EPOCH":"2023-02-16T21:24:59.694912","GP_ID":"225686842","MEAN_MOTION":"15.08848651","RA_OF_ASC_NODE":"252.6221","ECCENTRICITY":"0.00010200","CLASSIFICATION_TYPE":"U","MEAN_ANOMALY":"285.2457","COUNTRY_CODE":"US","SITE":"AFETR","PERIAPSIS":"539.013","FILE":"3799178","MEAN_MOTION_DDOT":"0.0000000000000","BSTAR":"0.00021968000000","REF_FRAME":"TEME"},{"PERIOD":"95.437","APOAPSIS":"540.581","EPHEMERIS_TYPE":"0","LAUNCH_DATE":"2022-02-03","TLE_LINE1":"1 51463U 22010H   23047.93283859  .00000616  00000-0  56806-4 0  9999","NORAD_CAT_ID":"51463","SEMIMAJOR_AXIS":"6917.876","MEAN_ELEMENT_THEORY":"SGP4","ARG_OF_PERICENTER":"80.7995","INCLINATION":"53.2143","DECAY_DATE":null,"OBJECT_TYPE":"PAYLOAD","RCS_SIZE":"LARGE","ELEMENT_SET_NO":"999","TIME_SYSTEM":"UTC","REV_AT_EPOCH":"5792","OBJECT_NAME":"STARLINK-3419","OBJECT_ID":"2022-010H","MEAN_MOTION_DOT":"0.00000616","TLE_LINE2":"2 51463  53.2143 252.4415 0001215  80.7995 279.3135 15.08841507 57921","SITE":"AFETR","PERIAPSIS":"538.900","FILE":"3799178","MEAN_MOTION_DDOT":"0.0000000000000","BSTAR":"0.00005680600000","REF_FRAME":"TEME","CENTER_NAME":"EARTH","EPOCH":"2023-02-16T22:23:17.254176","GP_ID":"225685593","MEAN_MOTION":"15.08841507","RA_OF_ASC_NODE":"252.4415","CLASSIFICATION_TYPE":"U","ECCENTRICITY":"0.00012150","MEAN_ANOMALY":"279.3135","COUNTRY_CODE":"US"},{"MEAN_MOTION_DOT":"0.00002561","TLE_LINE2":"2 51464  53.2109 253.8423 0001545  89.4280 270.6889 15.08846078 58689","OBJECT_ID":"2022-010J","REV_AT_EPOCH":"5868","OBJECT_NAME":"STARLINK-3189","ELEMENT_SET_NO":"999","TIME_SYSTEM":"UTC","RCS_SIZE":"LARGE","OBJECT_TYPE":"PAYLOAD","DECAY_DATE":null,"INCLINATION":"53.2109","ARG_OF_PERICENTER":"89.4280","SEMIMAJOR_AXIS":"6917.862","NORAD_CAT_ID":"51464","MEAN_ELEMENT_THEORY":"SGP4","TLE_LINE1":"1 51464U 22010J   23047.62003950  .00002561  00000-0  17893-3 0  9991","LAUNCH_DATE":"2022-02-03","EPHEMERIS_TYPE":"0","PERIOD":"95.437","APOAPSIS":"540.796","COUNTRY_CODE":"US","CLASSIFICATION_TYPE":"U","ECCENTRICITY":"0.00015450","MEAN_ANOMALY":"270.6889","RA_OF_ASC_NODE":"253.8423","GP_ID":"225686344","MEAN_MOTION":"15.08846078","EPOCH":"2023-02-16T14:52:51.412800","CENTER_NAME":"EARTH","REF_FRAME":"TEME","MEAN_MOTION_DDOT":"0.0000000000000","BSTAR":"0.00017893000000","FILE":"3799178","PERIAPSIS":"538.658","SITE":"AFETR"},{"REV_AT_EPOCH":"5868","OBJECT_NAME":"STARLINK-3401","OBJECT_ID":"2022-010K","MEAN_MOTION_DOT":"0.00000601","TLE_LINE2":"2 51465  53.2133 253.8632 0001296  84.1223 275.9917 15.08839353 58689","DECAY_DATE":null,"OBJECT_TYPE":"PAYLOAD","RCS_SIZE":"LARGE","ELEMENT_SET_NO":"999","TIME_SYSTEM":"UTC","SEMIMAJOR_AXIS":"6917.882","NORAD_CAT_ID":"51465","MEAN_ELEMENT_THEORY":"SGP4","ARG_OF_PERICENTER":"84.1223","INCLINATION":"53.2133","PERIOD":"95.438","APOAPSIS":"540.644","EPHEMERIS_TYPE":"0","LAUNCH_DATE":"2022-02-03","TLE_LINE1":"1 51465U 22010K   23047.61636080  .00000601  00000-0  55856-4 0  9992","COUNTRY_CODE":"US","CENTER_NAME":"EARTH","EPOCH":"2023-02-16T14:47:33.573120","GP_ID":"225641826","MEAN_MOTION":"15.08839353","RA_OF_ASC_NODE":"253.8632","ECCENTRICITY":"0.00012960","CLASSIFICATION_TYPE":"U","MEAN_ANOMALY":"275.9917","FILE":"3798293","MEAN_MOTION_DDOT":"0.0000000000000","BSTAR":"0.00005585600000","REF_FRAME":"TEME","SITE":"AFETR","PERIAPSIS":"538.851"},{"CENTER_NAME":"EARTH","EPOCH":"2023-02-16T20:42:35.824896","MEAN_MOTION":"15.08848634","GP_ID":"225687343","RA_OF_ASC_NODE":"252.7563","MEAN_ANOMALY":"267.0729","ECCENTRICITY":"0.00013550","CLASSIFICATION_TYPE":"U","COUNTRY_CODE":"US","SITE":"AFETR","PERIAPSIS":"538.782","FILE":"3799178","BSTAR":"0.00025334000000","MEAN_MOTION_DDOT":"0.0000000000000","REF_FRAME":"TEME","DECAY_DATE":null,"OBJECT_TYPE":"PAYLOAD","RCS_SIZE":"LARGE","TIME_SYSTEM":"UTC","ELEMENT_SET_NO":"999","OBJECT_NAME":"STARLINK-3178","REV_AT_EPOCH":"5791","OBJECT_ID":"2022-010M","TLE_LINE2":"2 51467  53.2129 252.7563 0001355  93.0418 267.0729 15.08848634 57918","MEAN_MOTION_DOT":"0.00003747","APOAPSIS":"540.656","PERIOD":"95.437","EPHEMERIS_TYPE":"0","LAUNCH_DATE":"2022-02-03","TLE_LINE1":"1 51467U 22010M   23047.86291464  .00003747  00000-0  25334-3 0  9995","NORAD_CAT_ID":"51467","SEMIMAJOR_AXIS":"6917.854","MEAN_ELEMENT_THEORY":"SGP4","INCLINATION":"53.2129","ARG_OF_PERICENTER":"93.0418"},{"INCLINATION":"53.2119","ARG_OF_PERICENTER":"89.2471","NORAD_CAT_ID":"51468","SEMIMAJOR_AXIS":"6917.906","MEAN_ELEMENT_THEORY":"SGP4","LAUNCH_DATE":"2022-02-03","TLE_LINE1":"1 51468U 22010N   23047.60900279 -.00000071  00000-0  13617-4 0  9999","APOAPSIS":"540.492","PERIOD":"95.438","EPHEMERIS_TYPE":"0","TLE_LINE2":"2 51468  53.2119 253.8938 0001043  89.2471 270.8640 15.08831654 57879","MEAN_MOTION_DOT":"-0.00000071","OBJECT_NAME":"STARLINK-3174","REV_AT_EPOCH":"5787","OBJECT_ID":"2022-010N","RCS_SIZE":"LARGE","TIME_SYSTEM":"UTC","ELEMENT_SET_NO":"999","DECAY_DATE":null,"OBJECT_TYPE":"PAYLOAD","BSTAR":"0.00001361700000","MEAN_MOTION_DDOT":"0.0000000000000","REF_FRAME":"TEME","FILE":"3798293","SITE":"AFETR","PERIAPSIS":"539.049","COUNTRY_CODE":"US","RA_OF_ASC_NODE":"253.8938","MEAN_ANOMALY":"270.8640","ECCENTRICITY":"0.00010430","CLASSIFICATION_TYPE":"U","EPOCH":"2023-02-16T14:36:57.841056","CENTER_NAME":"EARTH","MEAN_MOTION":"15.08831654","GP_ID":"225640327"},{"RA_OF_ASC_NODE":"252.3435","MEAN_ANOMALY":"280.4019","CLASSIFICATION_TYPE":"U","ECCENTRICITY":"0.00015260","CENTER_NAME":"EARTH","EPOCH":"2023-02-16T22:55:05.073312","MEAN_MOTION":"15.08839448","GP_ID":"225662726","COUNTRY_CODE":"US","SITE":"AFETR","PERIAPSIS":"538.691","BSTAR":"0.00013234000000","MEAN_MOTION_DDOT":"0.0000000000000","REF_FRAME":"TEME","FILE":"3799151","RCS_SIZE":"LARGE","TIME_SYSTEM":"UTC","ELEMENT_SET_NO":"999","DECAY_DATE":null,"OBJECT_TYPE":"PAYLOAD","TLE_LINE2":"2 51469  53.2120 252.3435 0001526  79.7145 280.4019 15.08839448 58738","MEAN_MOTION_DOT":"0.00001819","REV_AT_EPOCH":"5873","OBJECT_NAME":"STARLINK-3182","OBJECT_ID":"2022-010P","LAUNCH_DATE":"2022-02-03","TLE_LINE1":"1 51469U 22010P   23047.95491983  .00001819  00000-0  13234-3 0  9999","APOAPSIS":"540.803","PERIOD":"95.438","EPHEMERIS_TYPE":"0","ARG_OF_PERICENTER":"79.7145","INCLINATION":"53.2120","NORAD_CAT_ID":"51469","SEMIMAJOR_AXIS":"6917.882","MEAN_ELEMENT_THEORY":"SGP4"},{"SITE":"AFETR","PERIAPSIS":"517.064","FILE":"3799178","BSTAR":"0.00359730000000","MEAN_MOTION_DDOT":"0.0000000000000","REF_FRAME":"TEME","CENTER_NAME":"EARTH","EPOCH":"2023-02-16T12:38:14.172288","MEAN_MOTION":"15.16075534","GP_ID":"225687095","RA_OF_ASC_NODE":"246.7786","MEAN_ANOMALY":"125.5601","ECCENTRICITY":"0.00009480","CLASSIFICATION_TYPE":"U","COUNTRY_CODE":"US","APOAPSIS":"518.371","PERIOD":"94.982","EPHEMERIS_TYPE":"0","LAUNCH_DATE":"2022-02-03","TLE_LINE1":"1 51471U 22010R   23047.52655292  .00070444  00000-0  35973-2 0  9993","MEAN_ELEMENT_THEORY":"SGP4","SEMIMAJOR_AXIS":"6895.852","NORAD_CAT_ID":"51471","INCLINATION":"53.2150","ARG_OF_PERICENTER":"234.5306","DECAY_DATE":null,"OBJECT_TYPE":"PAYLOAD","RCS_SIZE":"LARGE","TIME_SYSTEM":"UTC","ELEMENT_SET_NO":"999","OBJECT_NAME":"STARLINK-3165","REV_AT_EPOCH":"5827","OBJECT_ID":"2022-010R","TLE_LINE2":"2 51471  53.2150 246.7786 0000948 234.5306 125.5601 15.16075534 58279","MEAN_MOTION_DOT":"0.00070444"},{"DECAY_DATE":null,"OBJECT_TYPE":"PAYLOAD","RCS_SIZE":"LARGE","TIME_SYSTEM":"UTC","ELEMENT_SET_NO":"999","OBJECT_NAME":"STARLINK-3415","REV_AT_EPOCH":"5822","OBJECT_ID":"2022-010S","TLE_LINE2":"2 51472  53.2174 252.7235 0001277 113.8422 246.2704 15.08842012 58220","MEAN_MOTION_DOT":"-0.00007558","APOAPSIS":"540.623","PERIOD":"95.437","EPHEMERIS_TYPE":"0","LAUNCH_DATE":"2022-02-03","TLE_LINE1":"1 51472U 22010S   23047.87027038 -.00007558  00000-0 -45728-3 0  9991","SEMIMAJOR_AXIS":"6917.874","NORAD_CAT_ID":"51472","MEAN_ELEMENT_THEORY":"SGP4","INCLINATION":"53.2174","ARG_OF_PERICENTER":"113.8422","EPOCH":"2023-02-16T20:53:11.360832","CENTER_NAME":"EARTH","MEAN_MOTION":"15.08842012","GP_ID":"225686843","RA_OF_ASC_NODE":"252.7235","MEAN_ANOMALY":"246.2704","ECCENTRICITY":"0.00012770","CLASSIFICATION_TYPE":"U","COUNTRY_CODE":"US","SITE":"AFETR","PERIAPSIS":"538.856","FILE":"3799178","BSTAR":"-0.00045728000000","MEAN_MOTION_DDOT":"0.0000000000000","REF_FRAME":"TEME"}];
